{"type":"FeatureCollection","features":[{"type":"Feature","properties":{"name":"University of Michigan","type":"Academic","url":"https://ners.engin.umich.edu/research/plasmas/","contact_address1":"2355 Bonisteel Blvd, 1906 Cooley Bldg","contact_address2":"Ann Arbor, MI 48109","contact_phone":"734 764-4260","contact_email":"coeinfo@u.washington.edu"},"geometry":{"type":"Point","coordinates":[9.448373375537045,4.182132654598893]},"bbox":[9.448373375537045,4.182132654598893,9.448373375537045,4.182132654598893]}
,
{"type":"Feature","properties":{"name":"Hampton University","type":"Academic","url":"https://home.hamptonu.edu/","contact_address1":"100 E. Queen St","contact_address2":"Hampton, VA 23668","contact_phone":"","contact_email":""},"geometry":{"type":"Point","coordinates":[15.902937063929738,-0.09189099146728771]},"bbox":[15.902937063929738,-0.09189099146728771,15.902937063929738,-0.09189099146728771]}
,
{"type":"Feature","properties":{"name":"Michigan State University","type":"Academic","url":"https://msu.edu/","contact_address1":"426 Auditorium Rd","contact_address2":"East Lansing, MI 48824","contact_phone":"","contact_email":""},"geometry":{"type":"Point","coordinates":[8.853812817308652,4.56617094582076]},"bbox":[8.853812817308652,4.56617094582076,8.853812817308652,4.56617094582076]}
,
{"type":"Feature","properties":{"name":"University of Wisconsin-Madison","type":"Academic","url":"https://fusion.wisc.edu/","contact_address1":"1415 Engineering Dr","contact_address2":"Madison, WI 53706","contact_phone":"608 263-1646","contact_email":"pegasus_www@office365.wisc.edu"},"geometry":{"type":"Point","coordinates":[5.245659764513079,4.571771958735806]},"bbox":[5.245659764513079,4.571771958735806,5.245659764513079,4.571771958735806]}
,
{"type":"Feature","properties":{"name":"MIT Plasma Science and Fusion Center","type":"Academic","url":"https://www.psfc.mit.edu/","contact_address1":"167 Albany St","contact_address2":"Cambridge, MA 02139","contact_phone":"617 253-8100","contact_email":"psfc-info@mit.edu"},"geometry":{"type":"Point","coordinates":[18.53442645453271,6.0596002749537625]},"bbox":[18.53442645453271,6.0596002749537625,18.53442645453271,6.0596002749537625]}
,
{"type":"Feature","properties":{"name":"Baylor University","type":"Academic","url":"https://www.baylor.edu/physics/index.php?id=958988","contact_address1":"Baylor Sciences Building D.311, One Bear Place #97316","contact_address2":"Waco, TX 76798","contact_phone":"254 710-2511","contact_email":""},"geometry":{"type":"Point","coordinates":[-0.4878312367509345,-7.187473697006707]},"bbox":[-0.4878312367509345,-7.187473697006707,-0.4878312367509345,-7.187473697006707]}
,
{"type":"Feature","properties":{"name":"Bryn Mawr College","type":"Academic","url":"https://www.brynmawr.edu/physics/plasma","contact_address1":"101 N Merion Avenue","contact_address2":"Bryn Mawr, PA 19010","contact_phone":"610 526-5358","contact_email":""},"geometry":{"type":"Point","coordinates":[16.03651419602594,3.037943729282103]},"bbox":[16.03651419602594,3.037943729282103,16.03651419602594,3.037943729282103]}
,
{"type":"Feature","properties":{"name":"Columbia University","type":"Academic","url":"https://plasma.apam.columbia.edu/","contact_address1":"200 SW Mudd Building, MC 4701, 500 W 120th Street","contact_address2":"","contact_phone":"New York, NY 10027","contact_email":"apam@columbia.edu"},"geometry":{"type":"Point","coordinates":[16.85549415855507,4.030944349834104]},"bbox":[16.85549415855507,4.030944349834104,16.85549415855507,4.030944349834104]}
,
{"type":"Feature","properties":{"name":"University of Montana","type":"Academic","url":"https://www.umt.edu/physics-astronomy/research/plasma-group/","contact_address1":"Charles H Clapp Building 126","contact_address2":"Missoula, MT 59812","contact_phone":"406 243-2073","contact_email":""},"geometry":{"type":"Point","coordinates":[-11.809669034690579,9.322406728886753]},"bbox":[-11.809669034690579,9.322406728886753,-11.809669034690579,9.322406728886753]}
,
{"type":"Feature","properties":{"name":"US ITER","type":"Federal Laboratory","url":"https://www.usiter.org/","contact_address1":"1055 Commerce Park Dr","contact_address2":"Oak Ridge, TN 37830","contact_phone":"865 574-1000","contact_email":""},"geometry":{"type":"Point","coordinates":[9.879000138108973,-2.1502754531723003]},"bbox":[9.879000138108973,-2.1502754531723003,9.879000138108973,-2.1502754531723003]}
,
{"type":"Feature","properties":{"name":"TAE Technologies","type":"Industry","url":"https://tae.com/","contact_address1":"19631 Pauling","contact_address2":"Foothill Ranch, CA 92610","contact_phone":"949 830-2117","contact_email":""},"geometry":{"type":"Point","coordinates":[-17.27116786079284,-3.0403469853239407]},"bbox":[-17.27116786079284,-3.0403469853239407,-17.27116786079284,-3.0403469853239407]}
,
{"type":"Feature","properties":{"name":"Tokamak Energy","type":"Industry","url":"https://www.tokamakenergy.co.uk/","contact_address1":"","contact_address2":"Bruceton Mills, WV","contact_phone":"","contact_email":""},"geometry":null,"bbox":[null,null,null,null]}
,
{"type":"Feature","properties":{"name":"Commonwealth Fusion Systems","type":"Industry","url":"https://cfs.energy/","contact_address1":"148 Sidney St","contact_address2":"Cambridge, MA 02139","contact_phone":"781 583-3100","contact_email":"info@cfs.energy"},"geometry":{"type":"Point","coordinates":[18.53120208155725,6.057467633203669]},"bbox":[18.53120208155725,6.057467633203669,18.53120208155725,6.057467633203669]}
,
{"type":"Feature","properties":{"name":"Helion Energy","type":"Industry","url":"https://www.helionenergy.com/","contact_address1":"1415 75th St SW","contact_address2":"Everett, WA 98203","contact_phone":"425 332-7462","contact_email":"inquiries@helionenergy.com"},"geometry":{"type":"Point","coordinates":[-17.0440004110655,11.61684346536193]},"bbox":[-17.0440004110655,11.61684346536193,-17.0440004110655,11.61684346536193]}
,
{"type":"Feature","properties":{"name":"LPPFusion","type":"Industry","url":"https://lppfusion.com/","contact_address1":"128 Lincoln Blvd","contact_address2":"Middlesex, NJ 08846","contact_phone":"732 356-5900","contact_email":"fusionfan@lppfusion.com"},"geometry":{"type":"Point","coordinates":[16.50365155132984,3.696004087488064]},"bbox":[16.50365155132984,3.696004087488064,16.50365155132984,3.696004087488064]}
,
{"type":"Feature","properties":{"name":"General Atomics","type":"Industry","url":"https://www.ga.com/magnetic-fusion/","contact_address1":"3550 General Atomics Ct","contact_address2":"San Diego, CA 92121","contact_phone":"858 455-3000","contact_email":""},"geometry":{"type":"Point","coordinates":[-17.109565795898234,-3.8843162863977208]},"bbox":[-17.109565795898234,-3.8843162863977208,-17.109565795898234,-3.8843162863977208]}
,
{"type":"Feature","properties":{"name":"Realta Fusion","type":"Industry","url":"https://realtafusion.com/","contact_address1":"","contact_address2":"Madison, WI","contact_phone":"","contact_email":""},"geometry":{"type":"Point","coordinates":[5.252733158773389,4.566931629630719]},"bbox":[5.252733158773389,4.566931629630719,5.252733158773389,4.566931629630719]}
,
{"type":"Feature","properties":{"name":"Longview Fusion Systems","type":"Industry","url":"https://www.longviewfusion.com/","contact_address1":"","contact_address2":"Orinda, California","contact_phone":"","contact_email":""},"geometry":{"type":"Point","coordinates":[-19.742301356866182,1.9677655494728525]},"bbox":[-19.742301356866182,1.9677655494728525,-19.742301356866182,1.9677655494728525]}
,
{"type":"Feature","properties":{"name":"Focused Energy Inc.","type":"Industry","url":"https://focused-energy.world/","contact_address1":"1808 El Camino Real","contact_address2":"Redwood City, CA 94063","contact_phone":"","contact_email":""},"geometry":{"type":"Point","coordinates":[-19.88518407701179,1.5899669303519333]},"bbox":[-19.88518407701179,1.5899669303519333,-19.88518407701179,1.5899669303519333]}
,
{"type":"Feature","properties":{"name":"Xcimer","type":"Industry","url":"https://xcimer.energy","contact_address1":"","contact_address2":"Redwood City, CA","contact_phone":"","contact_email":""},"geometry":{"type":"Point","coordinates":[-19.887272807161935,1.5965107276800408]},"bbox":[-19.887272807161935,1.5965107276800408,-19.887272807161935,1.5965107276800408]}
,
{"type":"Feature","properties":{"name":"Xcimer","type":"Industry","url":"https://xcimer.energy/","contact_position":"XXX","contact_address1":"10325 E 47th Ave","contact_address2":"Denver, CO 80238","contact_phone":" ","contact_email":"info@xcimer.energy"},"geometry":{"type":"Point","coordinates":[-6.330547916540677,1.385564375580119]},"bbox":[-6.330547916540677,1.385564375580119,-6.330547916540677,1.385564375580119]}
,
{"type":"Feature","properties":{"name":"Princeton Plasma Physics Laboratory","type":"Federal Laboratory","url":"https://www.pppl.gov/","contact_address1":"100 Stellarator Rd","contact_address2":"Princeton, NJ 08540","contact_phone":"609 243-2000","contact_email":"pppl_communications@pppl.gov"},"geometry":{"type":"Point","coordinates":[16.49036273671023,3.4738254728727815]},"bbox":[16.49036273671023,3.4738254728727815,16.49036273671023,3.4738254728727815]}
,
{"type":"Feature","properties":{"name":"Pacific Northwest National Laboratory","type":"Federal Laboratory","url":"https://www.pnnl.gov/fusion-energy-science","contact_address1":"902 Battelle Blvd","contact_address2":"Richland, WA 99354","contact_phone":"509 375-2121","contact_email":""},"geometry":{"type":"Point","coordinates":[-15.485471623157363,9.603216020602623]},"bbox":[-15.485471623157363,9.603216020602623,-15.485471623157363,9.603216020602623]}
,
{"type":"Feature","properties":{"name":"SLAC National Accelerator Laboratory","type":"Federal Laboratory","url":"https://www6.slac.stanford.edu/","contact_address1":"2575 Sand Hill Rd","contact_address2":"Menlo Park, CA 94025","contact_phone":"650 926-3300","contact_email":""},"geometry":{"type":"Point","coordinates":[-19.885974651929562,1.5289946043068252]},"bbox":[-19.885974651929562,1.5289946043068252,-19.885974651929562,1.5289946043068252]}
,
{"type":"Feature","properties":{"name":"Oak Ridge National Laboratory","type":"Federal Laboratory","url":"https://www.ornl.gov/division/fed","contact_address1":"5200, 1 Bethel Valley Rd","contact_address2":"Oak Ridge, TN 37830","contact_phone":"865 576-7658","contact_email":""},"geometry":{"type":"Point","coordinates":[9.862042151855597,-2.1786023971190303]},"bbox":[9.862042151855597,-2.1786023971190303,9.862042151855597,-2.1786023971190303]}
,
{"type":"Feature","properties":{"name":"Sandia National Laboratories","type":"Federal Laboratory","url":"https://www.sandia.gov/z-machine/fusion/","contact_address1":"1515 Eubank Blvd SE","contact_address2":"Albuquerque, NM 87123","contact_phone":"505 845-0011","contact_email":""},"geometry":{"type":"Point","coordinates":[-8.068341384180847,-3.200318976197015]},"bbox":[-8.068341384180847,-3.200318976197015,-8.068341384180847,-3.200318976197015]}
,
{"type":"Feature","properties":{"name":"Los Alamos National Laboratory","type":"Federal Laboratory","url":"https://www.lanl.gov/science-engineering/science-programs/office-of-science-programs/fusion-energy","contact_address1":"1515 Eubank Blvd SE","contact_address2":"Albuquerque, NM 87123","contact_phone":"505 845-0011","contact_email":""},"geometry":{"type":"Point","coordinates":[-7.866873674409554,-1.646314294499801]},"bbox":[-7.866873674409554,-1.646314294499801,-7.866873674409554,-1.646314294499801]}
,
{"type":"Feature","properties":{"name":"Lawrence Livermore National Laboratory","type":"Federal Laboratory","url":"https://sc-programs.llnl.gov/fusion-energy-sciences-at-llnl","contact_address1":"7000 East Ave","contact_address2":"Livermore, CA 94550","contact_phone":"925 422-1100","contact_email":""},"geometry":{"type":"Point","coordinates":[-19.446167114107407,1.6785842943772906]},"bbox":[-19.446167114107407,1.6785842943772906,-19.446167114107407,1.6785842943772906]}
,
{"type":"Feature","properties":{"name":"Lawrence Berkeley National Laboratory","type":"Federal Laboratory","url":"https://atap.lbl.gov/research/crosscutting-endeavors/fusion-energy-science/","contact_address1":"1 Cyclotron Rd","contact_address2":"Berkeley, CA 94720","contact_phone":"510 486-4000","contact_email":""},"geometry":{"type":"Point","coordinates":[-19.794916735758324,1.9817515822174998]},"bbox":[-19.794916735758324,1.9817515822174998,-19.794916735758324,1.9817515822174998]}
,
{"type":"Feature","properties":{"name":"Idaho National Laboratory","type":"Federal Laboratory","url":"https://inl.gov/article/nuclear-fusion/","contact_address1":"1955 N Fremont Ave","contact_address2":"Idaho Falls, ID 83415","contact_phone":"866 495-7440","contact_email":""},"geometry":{"type":"Point","coordinates":[-11.065835433487752,5.820015189609571]},"bbox":[-11.065835433487752,5.820015189609571,-11.065835433487752,5.820015189609571]}
,
{"type":"Feature","properties":{"name":"Savannah River National Laboratory","type":"Federal Laboratory","url":"https://srnl.doe.gov/","contact_address1":"Savannah River Site","contact_address2":"Aiken, SC 29808","contact_phone":"803 725-6211","contact_email":""},"geometry":{"type":"Point","coordinates":[12.245167822360877,-4.507157239606201]},"bbox":[12.245167822360877,-4.507157239606201,12.245167822360877,-4.507157239606201]}
,
{"type":"Feature","properties":{"name":"Fusion Power Associates","type":"Advocacy Group","url":"https://fusionpower.org/","contact_address1":"2 Professional Drive, Suite 249","contact_address2":"Gaithersburg, MD 20879","contact_phone":"301 258-0545","contact_email":"fusionpwrassoc@aol.com"},"geometry":{"type":"Point","coordinates":[14.787923061232604,1.885729279294778]},"bbox":[14.787923061232604,1.885729279294778,14.787923061232604,1.885729279294778]}
,
{"type":"Feature","properties":{"name":"Stellar Energy Foundation, Inc","type":"Advocacy Group","url":"https://stellarenergyfoundation.org/","contact_address1":"202 Carnegie Center Dr, Suite 104","contact_address2":"Princeton, NJ 08540","contact_phone":"609 438-1742","contact_email":"contact@stellarenergyfoundation.org"},"geometry":{"type":"Point","coordinates":[16.463522607939343,3.434807750550706]},"bbox":[16.463522607939343,3.434807750550706,16.463522607939343,3.434807750550706]}
,
{"type":"Feature","properties":{"name":"Energy for the Common Good","type":"Advocacy Group","url":"http://energycommongood.org/","contact_address1":"9 Damon Mill Square, Ste 6C","contact_address2":"Concord, MA 01742","contact_phone":"","contact_email":"info@energycommongood.org"},"geometry":{"type":"Point","coordinates":[18.290146700235013,6.091729591622159]},"bbox":[18.290146700235013,6.091729591622159,18.290146700235013,6.091729591622159]}
,
{"type":"Feature","properties":{"name":"Type One Energy","type":"Industry","url":"https://typeoneenergy.com/","contact_address1":"2410 Cherahala Blvd","contact_address2":"Knoxville, TN 37931","contact_phone":"608 616-5965","contact_email":" "},"geometry":{"type":"Point","coordinates":[9.938865259426038,-2.1811433572003684]},"bbox":[9.938865259426038,-2.1811433572003684,9.938865259426038,-2.1811433572003684]}
,
{"type":"Feature","properties":{"name":"Type One Energy","type":"Industry","url":"https://typeoneenergy.com/","contact_address1":"299 Washington St, Suites C & E","contact_address2":"Woburn, MA 01801","contact_phone":"608 616-5965","contact_email":" "},"geometry":{"type":"Point","coordinates":[18.48178804756201,6.1862169892910215]},"bbox":[18.48178804756201,6.1862169892910215,18.48178804756201,6.1862169892910215]}
,
{"type":"Feature","properties":{"name":"Zap Energy","type":"Industry","url":"https://www.zapenergy.com","contact_address1":"","contact_address2":"Everett, WA","contact_phone":" ","contact_email":" "},"geometry":{"type":"Point","coordinates":[-17.019921911318054,11.630025582718556]},"bbox":[-17.019921911318054,11.630025582718556,-17.019921911318054,11.630025582718556]}
,
{"type":"Feature","properties":{"name":"CompX","type":"Industry","url":"https://www.compxco.com/","contact_address1":"PO Box 2672","contact_address2":"Del Mar, CA 92014","contact_phone":"","contact_email":"rwharvey@compxco.com"},"geometry":{"type":"Point","coordinates":[-17.11988059888854,-3.8123767466801186]},"bbox":[-17.11988059888854,-3.8123767466801186,-17.11988059888854,-3.8123767466801186]}
,
{"type":"Feature","properties":{"name":"FAR-TECH, Inc.","type":"Industry","url":"https://www.far-tech.com","contact_address1":"3550 General Atomics Ct, Ste G02-226","contact_address2":"San Diego, CA 92121","contact_phone":"","contact_email":"support@far-tech.com"},"geometry":{"type":"Point","coordinates":[-17.109506686937333,-3.8843389593253184]},"bbox":[-17.109506686937333,-3.8843389593253184,-17.109506686937333,-3.8843389593253184]}
,
{"type":"Feature","properties":{"name":"NOVA Photonics","type":"Industry","url":"https://www.novaphotonics.com/","contact_address1":"200 Forrestal Rd","contact_address2":"Princeton, NJ 08540","contact_phone":"","contact_email":"info@novaphotonics.com"},"geometry":{"type":"Point","coordinates":[16.482421672056734,3.467829713095388]},"bbox":[16.482421672056734,3.467829713095388,16.482421672056734,3.467829713095388]}
,
{"type":"Feature","properties":{"name":"Tech-X Corporation","type":"Industry","url":"https://txcorp.com/","contact_address1":"5621 Arapahoe Ave, Ste A","contact_address2":"Boulder, CO 80303","contact_phone":"","contact_email":"sales@txcorp.com"},"geometry":{"type":"Point","coordinates":[-6.524478154289699,1.667122112328583]},"bbox":[-6.524478154289699,1.667122112328583,-6.524478154289699,1.667122112328583]}
,
{"type":"Feature","properties":{"name":"Woodruff Scientific Inc.","type":"Industry","url":"http://woodruffscientific.com/","contact_address1":"2778 Agua Fria St, Ste 6","contact_address2":"Santa Fe, NM 87507","contact_phone":"","contact_email":"sales@woodruffscientific.com"},"geometry":{"type":"Point","coordinates":[-7.567521007878974,-2.6418700864704054]},"bbox":[-7.567521007878974,-2.6418700864704054,-7.567521007878974,-2.6418700864704054]}
,
{"type":"Feature","properties":{"name":"Air Force Research Laboratory","type":"Federal Laboratory","url":"https://www.afrl.af.mil/About-Us/Fact-Sheets/Fact-Sheet-Display/Article/2282129/afosr-physical-sciences/","contact_address1":"1864 4th St","contact_address2":"Wright-Patterson AFB, OH 45433","contact_phone":"","contact_email":""},"geometry":{"type":"Point","coordinates":[9.491709690845223,1.703746515093018]},"bbox":[9.491709690845223,1.703746515093018,9.491709690845223,1.703746515093018]}
,
{"type":"Feature","properties":{"name":"National Institute of Standards and Technology","type":"Federal Laboratory","url":"https://www.nist.gov","contact_address1":"100 Bureau Dr","contact_address2":"Gaithersburg, MD 20899","contact_phone":"","contact_email":""},"geometry":{"type":"Point","coordinates":[14.799123703817408,1.868392535242343]},"bbox":[14.799123703817408,1.868392535242343,14.799123703817408,1.868392535242343]}
,
{"type":"Feature","properties":{"name":"Naval Research Laboratory","type":"Federal Laboratory","url":"https://www.nrl.navy.mil/ppd/","contact_address1":"4555 Overlook Ave","contact_address2":"SW Washington, DC 20375","contact_phone":"","contact_email":"plasmainfo@nrl.navy.mil"},"geometry":{"type":"Point","coordinates":[15.012915113390974,1.5808776964383215]},"bbox":[15.012915113390974,1.5808776964383215,15.012915113390974,1.5808776964383215]}
,
{"type":"Feature","properties":{"name":"Argonne National Laboratory","type":"Federal Laboratory","url":"https://www.anl.gov/topic/science-technology/plasma-physics","contact_address1":"","contact_address2":"","contact_phone":"","contact_email":""},"geometry":{"type":"Point","coordinates":[6.400957217086495,3.283928262525054]},"bbox":[6.400957217086495,3.283928262525054,6.400957217086495,3.283928262525054]}
,
{"type":"Feature","properties":{"name":"Auburn University","type":"Academic","url":"http://www.auburn.edu/academic/cosam/departments/physics/research/plasma.htm","contact_address1":"315 Roosevelt Concourse, Auburn University","contact_address2":"Auburn, AL 36849","contact_phone":"","contact_email":""},"geometry":{"type":"Point","coordinates":[9.25301809431632,-5.65777681371731]},"bbox":[9.25301809431632,-5.65777681371731,9.25301809431632,-5.65777681371731]}
,
{"type":"Feature","properties":{"name":"William & Mary","type":"Academic","url":"https://smordijck.people.wm.edu/ppfs/index.php","contact_address1":"Sadler Center, 200 Stadium Dr","contact_address2":"Williamsburg, VA 23185","contact_phone":"","contact_email":""},"geometry":{"type":"Point","coordinates":[15.556453646844613,0.09199527004949376]},"bbox":[15.556453646844613,0.09199527004949376,15.556453646844613,0.09199527004949376]}
,
{"type":"Feature","properties":{"name":"Georgia Tech","type":"Academic","url":"https://frc.gatech.edu","contact_address1":"North Ave","contact_address2":"Atlanta, GA 30332","contact_phone":"","contact_email":""},"geometry":{"type":"Point","coordinates":[10.015148264893387,-4.382415403990788]},"bbox":[10.015148264893387,-4.382415403990788,10.015148264893387,-4.382415403990788]}
,
{"type":"Feature","properties":{"name":"University of Texas at Austin","type":"Academic","url":"http://w3fusion.ph.utexas.edu","contact_address1":"2515 Speedway, C1600","contact_address2":"Austin, TX 78712","contact_phone":"","contact_email":""},"geometry":{"type":"Point","coordinates":[-1.0331289308023333,-8.42930426051994]},"bbox":[-1.0331289308023333,-8.42930426051994,-1.0331289308023333,-8.42930426051994]}
,
{"type":"Feature","properties":{"name":"Princeton University","type":"Academic","url":"https://plasma.princeton.edu","contact_address1":"100 Stellarator Rd","contact_address2":"Princeton, NJ 08540","contact_phone":"","contact_email":""},"geometry":{"type":"Point","coordinates":[16.490361816109658,3.4738294861461556]},"bbox":[16.490361816109658,3.4738294861461556,16.490361816109658,3.4738294861461556]}
,
{"type":"Feature","properties":{"name":"University of California - Los Angeles","type":"Academic","url":"https://psti.ucla.edu","contact_address1":"475 Portola Plaza","contact_address2":"Los Angeles, CA 90095","contact_phone":"","contact_email":""},"geometry":{"type":"Point","coordinates":[-17.813267829616496,-2.504722611668442]},"bbox":[-17.813267829616496,-2.504722611668442,-17.813267829616496,-2.504722611668442]}
,
{"type":"Feature","properties":{"name":"University of California - San Diego","type":"Academic","url":"https://fapp.ucsd.edu","contact_address1":"9500 Gilman Dr, #0424","contact_address2":"La Jolla, CA 92093","contact_phone":"","contact_email":""},"geometry":{"type":"Point","coordinates":[-17.115169137635622,-3.896977558355463]},"bbox":[-17.115169137635622,-3.896977558355463,-17.115169137635622,-3.896977558355463]}
,
{"type":"Feature","properties":{"name":"University of California - Irvine","type":"Academic","url":"https://www.physics.uci.edu/research/plasma","contact_address1":"4129H Frederick Reines Hall","contact_address2":"Irvine, CA 92697","contact_phone":"","contact_email":""},"geometry":{"type":"Point","coordinates":[-17.433148800821172,-3.0358664827103454]},"bbox":[-17.433148800821172,-3.0358664827103454,-17.433148800821172,-3.0358664827103454]}
,
{"type":"Feature","properties":{"name":"University of Washington","type":"Academic","url":"https://www.aa.washington.edu/research/areas/plasma","contact_address1":"Aeronautics & Astronautics, University of Washington, Box 352400","contact_address2":"Seattle, WA 98195","contact_phone":"","contact_email":""},"geometry":{"type":"Point","coordinates":[-17.15339768672987,11.366835440577823]},"bbox":[-17.15339768672987,11.366835440577823,-17.15339768672987,11.366835440577823]}
,
{"type":"Feature","properties":{"name":"University of Tennessee - Knoxville","type":"Academic","url":"https://ne.utk.edu/research/nuclear-fusion-technology/","contact_address1":"1412 Circle Dr","contact_address2":"Knoxville, TN 37996","contact_phone":"","contact_email":""},"geometry":{"type":"Point","coordinates":[10.122225517107998,-2.155352044330073]},"bbox":[10.122225517107998,-2.155352044330073,10.122225517107998,-2.155352044330073]}
,
{"type":"Feature","properties":{"name":"Swarthmore","type":"Academic","url":"https://www.swarthmore.edu/ssx-lab","contact_address1":"500 College Ave","contact_address2":"Swarthmore, PA 19081","contact_phone":"","contact_email":"doc@swarthmore.edu"},"geometry":{"type":"Point","coordinates":[16.03354593456917,2.9117603242673686]},"bbox":[16.03354593456917,2.9117603242673686,16.03354593456917,2.9117603242673686]}
,
{"type":"Feature","properties":{"name":"University of Illinois - Urbana-Champaign","type":"Academic","url":"https://npre.illinois.edu","contact_address1":"216 Talbot Laboratory, MC-234, 104 South Wright St","contact_address2":"Urbana, IL 61801","contact_phone":"","contact_email":""},"geometry":{"type":"Point","coordinates":[6.347456569595337,1.6643798877972082]},"bbox":[6.347456569595337,1.6643798877972082,6.347456569595337,1.6643798877972082]}
,
{"type":"Feature","properties":{"name":"Cornell University","type":"Academic","url":"https://www.lps.cornell.edu","contact_address1":"441 Rhodes Hall","contact_address2":"Ithaca, NY 14853","contact_phone":"","contact_email":"csv8@cornell.edu"},"geometry":{"type":"Point","coordinates":[14.673740674249808,5.230865238055183]},"bbox":[14.673740674249808,5.230865238055183,14.673740674249808,5.230865238055183]}
,
{"type":"Feature","properties":{"name":"North Carolina State University","type":"Academic","url":"https://www.ne.ncsu.edu/research/","contact_address1":"2500 Stinson Dr","contact_address2":"Raleigh, NC 27607","contact_phone":"","contact_email":""},"geometry":{"type":"Point","coordinates":[14.318379258778752,-1.676750630059253]},"bbox":[14.318379258778752,-1.676750630059253,14.318379258778752,-1.676750630059253]}
,
{"type":"Feature","properties":{"name":"Penn State University","type":"Academic","url":"https://www.nuce.psu.edu/","contact_address1":"206 Hallowell Building The Pennsylvania State University","contact_address2":"University Park, PA 16802","contact_phone":"","contact_email":""},"geometry":{"type":"Point","coordinates":[13.992640590490048,3.4027513482016607]},"bbox":[13.992640590490048,3.4027513482016607,13.992640590490048,3.4027513482016607]}
,
{"type":"Feature","properties":{"name":"University of Alaska-Fairbanks","type":"Academic","url":"https://www.uaf.edu/physics/","contact_address1":"Reichardt, 900 Yukon Dr","contact_address2":"Fairbanks, AK","contact_phone":"","contact_email":"uaf-physics@alaska.edu"},"geometry":{"type":"Point","coordinates":[-16.310255442062726,-9.207466975313078]},"bbox":[-16.310255442062726,-9.207466975313078,-16.310255442062726,-9.207466975313078]}
,
{"type":"Feature","properties":{"name":"University of California - Berkeley","type":"Academic","url":"https://nuc.berkeley.edu/","contact_address1":"Etcheverry Hall 2521 Hearst Ave","contact_address2":"Berkeley, CA 94709","contact_phone":"","contact_email":""},"geometry":{"type":"Point","coordinates":[-19.801868999526302,1.9835972433523967]},"bbox":[-19.801868999526302,1.9835972433523967,-19.801868999526302,1.9835972433523967]}
,
{"type":"Feature","properties":{"name":"University of Florida","type":"Academic","url":"https://mcdevitt.mse.ufl.edu","contact_address1":"University of Florida, Rhines Hall","contact_address2":"Gainesville, FL","contact_phone":"","contact_email":"cmcdevitt@ufl.edu"},"geometry":{"type":"Point","coordinates":[12.2829435806088,-8.236918906020374]},"bbox":[12.2829435806088,-8.236918906020374,12.2829435806088,-8.236918906020374]}
,
{"type":"Feature","properties":{"name":"University of Maryland - College Park","type":"Academic","url":"https://umdphysics.umd.edu/research/research-areas/plasma-physics.html","contact_address1":"University of Maryland College Park","contact_address2":"MD 20742","contact_phone":"","contact_email":""},"geometry":{"type":"Point","coordinates":[15.037100975441845,1.7541268544888358]},"bbox":[15.037100975441845,1.7541268544888358,15.037100975441845,1.7541268544888358]}
,
{"type":"Feature","properties":{"name":"University of Maryland - Baltimore County","type":"Academic","url":"https://me.umbc.edu/graduate-program-overview/","contact_address1":"University of Maryland, Baltimore County 1000 Hilltop Circle","contact_address2":"Baltimore, MD 21250","contact_phone":"","contact_email":""},"geometry":{"type":"Point","coordinates":[15.157068682377728,2.055440971302695]},"bbox":[15.157068682377728,2.055440971302695,15.157068682377728,2.055440971302695]}
,
{"type":"Feature","properties":{"name":"University of Nevada - Reno","type":"Academic","url":"https://www.unr.edu/physics/research/zppl","contact_address1":"1664 N Virginia St","contact_address2":"Reno, NV 89557","contact_phone":"","contact_email":"physreg@unr.edu"},"geometry":{"type":"Point","coordinates":[-17.541739260851998,3.1184342169453427]},"bbox":[-17.541739260851998,3.1184342169453427,-17.541739260851998,3.1184342169453427]}
,
{"type":"Feature","properties":{"name":"Utah State University","type":"Academic","url":"https://www.usu.edu/physics/index","contact_address1":"4415 Old Main Hill","contact_address2":"Logan, UT","contact_phone":"","contact_email":"physics@usu.edu"},"geometry":{"type":"Point","coordinates":[-11.18962196371064,4.035844720535701]},"bbox":[-11.18962196371064,4.035844720535701,-11.18962196371064,4.035844720535701]}
,
{"type":"Feature","properties":{"name":"West Virginia University","type":"Academic","url":"https://physics.wvu.edu/research/plasma-and-space-physics","contact_address1":"White Hall, Box 6315, West Virginia University","contact_address2":"Morgantown, WV 26506","contact_phone":"","contact_email":"physics@wvu.edu"},"geometry":{"type":"Point","coordinates":[12.648192343837332,1.9710624047807268]},"bbox":[12.648192343837332,1.9710624047807268,12.648192343837332,1.9710624047807268]}
,
{"type":"Feature","properties":{"name":"Colorado State University","type":"Academic","url":"https://www.engr.colostate.edu/projects/clsd/","contact_address1":"430 N College Ave","contact_address2":"Fort Collins, CO 80523","contact_phone":"","contact_email":"ayalin@engr.colostate.edu"},"geometry":{"type":"Point","coordinates":[-6.358046612819175,2.236018552725551]},"bbox":[-6.358046612819175,2.236018552725551,-6.358046612819175,2.236018552725551]}
,
{"type":"Feature","properties":{"name":"University of Rochester","type":"Academic","url":"https://www.lle.rochester.edu/","contact_address1":"","contact_address2":"Rochester, NY","contact_phone":"","contact_email":""},"geometry":{"type":"Point","coordinates":[13.718110962118521,5.723287811142937]},"bbox":[13.718110962118521,5.723287811142937,13.718110962118521,5.723287811142937]}
,
{"type":"Feature","properties":{"name":"Dartmouth College","type":"Academic","url":"https://physics.dartmouth.edu/research/plasma-and-space-physics","contact_address1":"","contact_address2":"Hanover, NH","contact_phone":"","contact_email":""},"geometry":{"type":"Point","coordinates":[17.355723211165568,7.1409535640227775]},"bbox":[17.355723211165568,7.1409535640227775,17.355723211165568,7.1409535640227775]}
,
{"type":"Feature","properties":{"name":"New York University","type":"Academic","url":"https://math.nyu.edu/dynamic/research/pages/magneto-fluid-dynamics-division/","contact_address1":"","contact_address2":"New York City, NY","contact_phone":"","contact_email":""},"geometry":{"type":"Point","coordinates":[16.84993889260415,3.94822632700264]},"bbox":[16.84993889260415,3.94822632700264,16.84993889260415,3.94822632700264]}
,
{"type":"Feature","properties":{"name":"Fusion Industry Association","type":"Advocacy Group","url":"https://www.fusionindustryassociation.org","contact_address1":"800 Maine Ave, SW, Suite 223","contact_address2":"Washington, DC 20024","contact_phone":"","contact_email":""},"geometry":{"type":"Point","coordinates":[14.996429476656802,1.635543176049271]},"bbox":[14.996429476656802,1.635543176049271,14.996429476656802,1.635543176049271]}
,
{"type":"Feature","properties":{"name":"Avalanche Energy","type":"Industry","url":"https://www.avalanche.energy","contact_address1":"9100 E Marginal Way S","contact_address2":"Tukwila, WA 98108","contact_phone":"","contact_email":"rlangtry@avalanche.energy"},"geometry":{"type":"Point","coordinates":[-17.185063869633435,11.240952781531341]},"bbox":[-17.185063869633435,11.240952781531341,-17.185063869633435,11.240952781531341]}
,
{"type":"Feature","properties":{"name":"General Fusion","type":"Industry","url":"https://generalfusion.com","contact_address1":"40 New York Ave","contact_address2":"Oak Ridge, TN 37830","contact_phone":"","contact_email":""},"geometry":{"type":"Point","coordinates":[9.858127766314416,-2.123741666425418]},"bbox":[9.858127766314416,-2.123741666425418,9.858127766314416,-2.123741666425418]}
,
{"type":"Feature","properties":{"name":"Thea Energy","type":"Industry","url":"https://thea.energy/","contact_address1":"92 Nassau St","contact_address2":"Princeton, NJ 08540","contact_phone":"","contact_email":""},"geometry":{"type":"Point","coordinates":[16.448730919873608,3.463989243558288]},"bbox":[16.448730919873608,3.463989243558288,16.448730919873608,3.463989243558288]}
,
{"type":"Feature","properties":{"name":"Thea","type":"Industry","url":"https://thea.energy/","contact_address1":"1 Eastern Road, Suite 3-04","contact_address2":"Kearny, NJ 07032","contact_phone":" ","contact_email":"info@thea.energy"},"geometry":null,"bbox":[null,null,null,null]}
,
{"type":"Feature","properties":{"name":"Shine Fusion","type":"Industry","url":"https://www.shinefusion.com","contact_address1":"3400 Innovation Ct","contact_address2":"Janesville, WI 53546","contact_phone":"608 210-1060","contact_email":" "},"geometry":{"type":"Point","coordinates":[5.559365567899309,4.142981881435722]},"bbox":[5.559365567899309,4.142981881435722,5.559365567899309,4.142981881435722]}
,
{"type":"Feature","properties":{"name":"Shine Fusion","type":"Industry","url":"https://www.shinefusion.com","contact_address1":"5115 Lacy Rd","contact_address2":"Fitchburg, WI 53711","contact_phone":"608 210-1060","contact_email":" "},"geometry":{"type":"Point","coordinates":[5.265769527902026,4.501556077202782]},"bbox":[5.265769527902026,4.501556077202782,5.265769527902026,4.501556077202782]}
,
{"type":"Feature","properties":{"name":"Pacific Fusion","type":"Industry","url":"https://www.pacificfusion.com/","contact_address1":" ","contact_address2":"Fremont, CA","contact_phone":" ","contact_email":"contact@pacificfusion.com"},"geometry":{"type":"Point","coordinates":[-19.680207216475225,1.59927404647029]},"bbox":[-19.680207216475225,1.59927404647029,-19.680207216475225,1.59927404647029]}
,
{"type":"Feature","properties":{"name":"Fuse","type":"Industry","url":"https://www.f.energy/","contact_address1":" ","contact_address2":"San Leandro, CA","contact_phone":" ","contact_email":"hello@f.energy"},"geometry":{"type":"Point","coordinates":[-19.773581891965435,1.8009923358262132]},"bbox":[-19.773581891965435,1.8009923358262132,-19.773581891965435,1.8009923358262132]}
,
{"type":"Feature","properties":{"name":"Accelerton","type":"Industry","url":"https://www.acceleron.energy/","contact_address1":"288 Norfolk St","contact_address2":"Cambridge, MA, 02139","contact_phone":" ","contact_email":"info@acceleron.energy"},"geometry":{"type":"Point","coordinates":[18.532661773900127,6.070773549255809]},"bbox":[18.532661773900127,6.070773549255809,18.532661773900127,6.070773549255809]}
,
{"type":"Feature","properties":{"name":"Electric Fusion Systems","type":"Industry","url":"https://electricfusionsystems.com","contact_address1":" ","contact_address2":"Broomfield, CO","contact_phone":" ","contact_email":"info@electricfusionsystems.com"},"geometry":{"type":"Point","coordinates":[-6.3883791999662485,1.5935579230638712]},"bbox":[-6.3883791999662485,1.5935579230638712,-6.3883791999662485,1.5935579230638712]}
,
{"type":"Feature","properties":{"name":"Blue Laser Fusion","type":"Industry","url":"https://bluelaserfusion.com/","contact_address1":"6950 Hollister Ave","contact_address2":"Goleta, CA 93117","contact_phone":" ","contact_email":"contact@bluelaserfusion.com"},"geometry":{"type":"Point","coordinates":[-18.864070673073766,-1.8701328642423642]},"bbox":[-18.864070673073766,-1.8701328642423642,-18.864070673073766,-1.8701328642423642]}
,
{"type":"Feature","properties":{"name":"Helicity Space","type":"Industry","url":"https://www.helicityspace.com/","contact_address1":" ","contact_address2":"Pasadena, CA","contact_phone":" ","contact_email":"inquiries@helicityspace.com"},"geometry":{"type":"Point","coordinates":[-17.550730126152587,-2.480400372718112]},"bbox":[-17.550730126152587,-2.480400372718112,-17.550730126152587,-2.480400372718112]}
,
{"type":"Feature","properties":{"name":"Horne Technologies","type":"Industry","url":"https://www.hornetechnologies.com","contact_address1":"1751 Hover St","contact_address2":"Longmont, CO 80501","contact_phone":" ","contact_email":"hornetech@protonmail.com"},"geometry":{"type":"Point","coordinates":[-6.438694865089893,1.8338013927327088]},"bbox":[-6.438694865089893,1.8338013927327088,-6.438694865089893,1.8338013927327088]}
,
{"type":"Feature","properties":{"name":"Maritime Fusion","type":"Industry","url":"https://maritimefusion.com/","contact_address1":" ","contact_address2":"San Francisco, CA","contact_phone":" ","contact_email":"founders@maritimefusion.com"},"geometry":{"type":"Point","coordinates":[-19.96863195133864,1.9030556646803474]},"bbox":[-19.96863195133864,1.9030556646803474,-19.96863195133864,1.9030556646803474]}
,
{"type":"Feature","properties":{"name":"NearStar Fusion","type":"Industry","url":"https://www.nearstarfusion.com","contact_address1":"13935 Willard Rd","contact_address2":"Chantilly, VA 20151","contact_phone":" ","contact_email":"howdy@nearstarfusion.com"},"geometry":{"type":"Point","coordinates":[14.690014820762332,1.5803645806988724]},"bbox":[14.690014820762332,1.5803645806988724,14.690014820762332,1.5803645806988724]}
,
{"type":"Feature","properties":{"name":"Terra Fusion","type":"Industry","url":"https://www.tf.energy","contact_address1":" ","contact_address2":"College Park, MD","contact_phone":" ","contact_email":" "},"geometry":{"type":"Point","coordinates":[15.045845396583857,1.7746213124077894]},"bbox":[15.045845396583857,1.7746213124077894,15.045845396583857,1.7746213124077894]}
,
{"type":"Feature","properties":{"name":"MIFTI","type":"Industry","url":"https://miftec.com/","contact_address1":"2600 Walnut Ave, Suite A","contact_address2":"Tustin, CA 92780","contact_phone":"714 329-3990","contact_email":"contact@miftec.com"},"geometry":{"type":"Point","coordinates":[-17.388095774856634,-2.9721939095202083]},"bbox":[-17.388095774856634,-2.9721939095202083,-17.388095774856634,-2.9721939095202083]}
,
{"type":"Feature","properties":{"name":"Stellarex","type":"Industry","url":"https://stellarex.energy","contact_address1":" ","contact_address2":"Princeton, NJ","contact_phone":" ","contact_email":"info@stellarex.energy"},"geometry":{"type":"Point","coordinates":[16.442821306899667,3.464552507995405]},"bbox":[16.442821306899667,3.464552507995405,16.442821306899667,3.464552507995405]}]}